PERSEUS-M1              
1 40039U 14033AF  26157.19783683  .00002874  00000+0  26408-3 0  9996
2 40039  97.9643 101.1498 0010864 342.9462  17.1392 14.95599597648991
POLYITAN-1              
1 40042U 14033AJ  26157.34797272  .00027146  00000+0  85481-3 0  9991
2 40042  98.0952 182.5871 0007871 173.9264 186.2073 15.32874791651930
TIGRISAT                
1 40043U 14033AK  26157.40323534  .00002659  00000+0  31004-3 0  9999
2 40043  97.7824 307.6633 0050696 109.5964 251.0734 14.85119745644021
AEROCUBE 6A             
1 40045U 14033AM  26157.40320187  .00008437  00000+0  70809-3 0  9998
2 40045  97.7224 324.4674 0039363  53.4951 306.9887 14.97989826645006
AEROCUBE 6B             
1 40046U 14033AN  26157.21585563  .00009415  00000+0  76027-3 0  9994
2 40046  97.7226 324.0473 0039048  46.3596 314.0854 14.99446844645114
CANX-4                  
1 40055U 14034C   26157.61394893  .00001096  00000+0  14781-3 0  9999
2 40055  98.3133  32.5383 0013821  49.1974 311.0434 14.81245573642969
CANX-5                  
1 40056U 14034D   26157.54495401  .00001099  00000+0  14819-3 0  9994
2 40056  98.3137  32.5098 0013823  49.4701 310.7712 14.81262504633766
UKUBE-1                 
1 40074U 14037F   26157.52386591  .00010975  00000+0  61888-3 0  9995
2 40074  98.4246 159.6768 0002024 144.0642 216.0723 15.13382208646944
BRITE-PL2 (HEWELIUSZ)   
1 40119U 14049B   26157.19256091  .00003210  00000+0  30175-3 0  9991
2 40119  97.9087 269.1089 0015051 141.6770 218.5523 14.94554868639806
AEROCUBE 5C             
1 40965U 15058B   26157.64335264  .00003382  00000+0  30191-3 0  9999
2 40965  64.7684 295.3901 0130352  67.4074 294.0769 14.91403197364089
AEROCUBE 7              
1 40966U 15058C   26157.60287561  .00004622  00000+0  37233-3 0  9994
2 40966  64.7631 277.9668 0120100  65.9158 295.4465 14.95656933364376
FOX-1A (AO-85)          
1 40967U 15058D   26157.48628590  .00003560  00000+0  32134-3 0  9997
2 40967  64.7764 312.2377 0129885  60.7834 300.6195 14.90916336111973
SINOD-D 1               
1 40968U 15058E   26157.51523905  .00004579  00000+0  36872-3 0  9990
2 40968  64.7761 292.3315 0118452  57.3437 303.9039 14.95835268115066
SNAP-3 ALICE            
1 40970U 15058G   26157.39594806  .00147296  00000+0  19062-2 0  9992
2 40970  64.7500 141.1638 0031161  18.1181 342.1066 15.57609990115202
LMRST-SAT               
1 40971U 15058H   26157.50596709  .00003369  00000+0  30676-3 0  9997
2 40971  64.7771 308.4939 0131572  62.8133 298.6319 14.90540113111967
SNAP-3 EDDIE            
1 40972U 15058J   26157.33022302  .00146667  00000+0  18167-2 0  9991
2 40972  64.7419 132.1937 0030946  22.2578 337.9902 15.58778313117335
PROPCUBE 3              
1 40973U 15058K   26157.63466297  .00004036  00000+0  33723-3 0  9999
2 40973  64.7695 285.5042 0123585  64.1044 297.2748 14.94197291113226
BISONSAT                
1 40974U 15058L   26157.54493393  .00013202  00000+0  64215-3 0  9992
2 40974  64.7585 208.0451 0078298  51.6298 309.1826 15.15972726114006
SNAP-3 JIMI             
1 40975U 15058M   26157.53786604  .00006328  00000+0  43649-3 0  9991
2 40975  64.7650 253.4640 0105624  59.7401 301.4120 15.02205663112626
PROPCUBE 1 (FLORA)      
1 40976U 15058N   26156.84667640  .00003762  00000+0  35422-3 0  9992
2 40976  64.7759 330.3823 0130245  65.3730 296.0883 14.89166491114570
SINOD-D 3               
1 40977U 15058P   26157.53073283  .00004685  00000+0  39595-3 0  9994
2 40977  64.7738 309.0942 0118822  62.3596 298.9520 14.93946402113163
HORYU-4                 
1 41340U 16012D   26157.40366388  .00388649  00000+0  12904-2 0  9996
2 41340  30.9846 157.7637 0002648 198.1452 161.9114 15.88250571569094
RAVAN                   
1 41849U 16067B   26157.61337760  .00058971  00000+0  91895-3 0  9994
2 41849  97.9898  45.9711 0005888  60.7982 299.3858 15.53664058526051
CELTEE 1                
1 41850U 16067C   26157.34237582  .00006772  00000+0  32185-3 0  9996
2 41850  98.0683  23.1696 0000628  85.8495 274.2809 15.19576231524234
OPTICUBE 04             
1 41851U 16067D   26157.54028243  .00003219  00000+0  20412-3 0  9994
2 41851  98.0708   9.2684 0016290 149.4911 210.7268 15.09613716523565
AEROCUBE 8D             
1 41852U 16067E   26157.19297648  .00010352  00000+0  42734-3 0  9990
2 41852  98.0694  26.5282 0003987 151.9816 208.1635 15.24242707524393
AEROCUBE 8C             
1 41853U 16067F   26157.54793505  .00009531  00000+0  39065-3 0  9993
2 41853  98.0566  24.1515 0006777  97.3370 262.8636 15.24493172524441
CORVUS BC2              
1 42846U 17042X   26157.16721588  .00004207  00000+0  29032-3 0  9998
2 42846  97.4067 318.9474 0014108 143.8240 216.3945 15.06228237485408
CORVUS BC1              
1 42847U 17042Y   26157.22949516  .00003751  00000+0  25816-3 0  9998
2 42847  97.4093 319.8140 0013365 122.2429 238.0096 15.06396296485445
MAKERSAT 0              
1 43016U 17073D   26157.40218812  .00029727  00000+0  81303-3 0  9993
2 43016  97.4648  39.8396 0106331 312.0020  47.2202 15.31705731464817
