OBJECT_NAME,OBJECT_ID,EPOCH,MEAN_MOTION,ECCENTRICITY,INCLINATION,RA_OF_ASC_NODE,ARG_OF_PERICENTER,MEAN_ANOMALY,EPHEMERIS_TYPE,CLASSIFICATION_TYPE,NORAD_CAT_ID,ELEMENT_SET_NO,REV_AT_EPOCH,BSTAR,MEAN_MOTION_DOT,MEAN_MOTION_DDOT
PERSEUS-M1,2014-033AF,2026-06-06T04:44:53.102112,14.95599597,.00108647,97.9643,101.1498,342.9462,17.1392,0,U,40039,999,64899,.26407788E-3,.2874E-4,0
POLYITAN-1,2014-033AJ,2026-06-06T08:21:04.843008,15.32874791,.00078716,98.0952,182.5871,173.9264,186.2073,0,U,40042,999,65193,.85481287E-3,.27146E-3,0
TIGRISAT,2014-033AK,2026-06-06T09:40:39.533376,14.85119745,.00506964,97.7824,307.6633,109.5964,251.0734,0,U,40043,999,64402,.31003762E-3,.2659E-4,0
AEROCUBE 6A,2014-033AM,2026-06-06T09:40:36.641568,14.97989826,.00393631,97.7224,324.4674,53.4951,306.9887,0,U,40045,999,64500,.70808653E-3,.8437E-4,0
AEROCUBE 6B,2014-033AN,2026-06-06T05:10:49.926432,14.99446844,.0039048,97.7226,324.0473,46.3596,314.0854,0,U,40046,999,64511,.76026709E-3,.9415E-4,0
CANX-4,2014-034C,2026-06-06T14:44:05.187552,14.81245573,.00138219,98.3133,32.5383,49.1974,311.0434,0,U,40055,999,64296,.14780543E-3,.1096E-4,0
CANX-5,2014-034D,2026-06-06T13:04:44.026464,14.81262504,.00138232,98.3137,32.5098,49.4701,310.7712,0,U,40056,999,63376,.14819454E-3,.1099E-4,0
UKUBE-1,2014-037F,2026-06-06T12:34:22.014624,15.13382208,.0002024,98.4246,159.6768,144.0642,216.0723,0,U,40074,999,64694,.61887867E-3,.10975E-3,0
BRITE-PL2 (HEWELIUSZ),2014-049B,2026-06-06T04:37:17.262624,14.94554868,.00150514,97.9087,269.1089,141.6770,218.5523,0,U,40119,999,63980,.30174932E-3,.321E-4,0
AEROCUBE 5C,2015-058B,2026-06-06T15:26:25.668096,14.91403197,.01303529,64.7684,295.3901,67.4074,294.0769,0,U,40965,999,36408,.30191376E-3,.3382E-4,0
AEROCUBE 7,2015-058C,2026-06-06T14:28:08.452704,14.95656933,.01201003,64.7631,277.9668,65.9158,295.4465,0,U,40966,999,36437,.37232759E-3,.4622E-4,0
FOX-1A (AO-85),2015-058D,2026-06-06T11:40:15.101760,14.90916336,.01298859,64.7764,312.2377,60.7834,300.6195,0,U,40967,999,11197,.32133896E-3,.356E-4,0
SINOD-D 1,2015-058E,2026-06-06T12:21:56.653920,14.95835268,.01184524,64.7761,292.3315,57.3437,303.9039,0,U,40968,999,11506,.36872398E-3,.4579E-4,0
SNAP-3 ALICE,2015-058G,2026-06-06T09:30:09.912384,15.57609990,.00311614,64.7500,141.1638,18.1181,342.1066,0,U,40970,999,11520,.19062082E-2,.147296E-2,0
LMRST-SAT,2015-058H,2026-06-06T12:08:35.556576,14.90540113,.01315724,64.7771,308.4939,62.8133,298.6319,0,U,40971,999,11196,.3067577E-3,.3369E-4,0
SNAP-3 EDDIE,2015-058J,2026-06-06T07:55:31.268928,15.58778313,.00309464,64.7419,132.1937,22.2578,337.9902,0,U,40972,999,11733,.18166532E-2,.146667E-2,0
PROPCUBE 3,2015-058K,2026-06-06T15:13:54.880608,14.94197291,.01235854,64.7695,285.5042,64.1044,297.2748,0,U,40973,999,11322,.33723007E-3,.4036E-4,0
BISONSAT,2015-058L,2026-06-06T13:04:42.291552,15.15972726,.00782987,64.7585,208.0451,51.6298,309.1826,0,U,40974,999,11400,.64215123E-3,.13202E-3,0
SNAP-3 JIMI,2015-058M,2026-06-06T12:54:31.625856,15.02205663,.01056242,64.7650,253.4640,59.7401,301.4120,0,U,40975,999,11262,.4364855E-3,.6328E-4,0
PROPCUBE 1 (FLORA),2015-058N,2026-06-05T20:19:12.840960,14.89166491,.01302457,64.7759,330.3823,65.3730,296.0883,0,U,40976,999,11457,.35422244E-3,.3762E-4,0
SINOD-D 3,2015-058P,2026-06-06T12:44:15.316512,14.93946402,.01188227,64.7738,309.0942,62.3596,298.9520,0,U,40977,999,11316,.3959491E-3,.4685E-4,0
HORYU-4,2016-012D,2026-06-06T09:41:16.559232,15.88250571,.00026484,30.9846,157.7637,198.1452,161.9114,0,U,41340,999,56909,.12903588E-2,.388649E-2,0
RAVAN,2016-067B,2026-06-06T14:43:15.824640,15.53664058,.00058884,97.9898,45.9711,60.7982,299.3858,0,U,41849,999,52605,.91894727E-3,.58971E-3,0
CELTEE 1,2016-067C,2026-06-06T08:13:01.270848,15.19576231,.00006286,98.0683,23.1696,85.8495,274.2809,0,U,41850,999,52423,.32184706E-3,.6772E-4,0
OPTICUBE 04,2016-067D,2026-06-06T12:58:00.401952,15.09613716,.00162901,98.0708,9.2684,149.4911,210.7268,0,U,41851,999,52356,.20411859E-3,.3219E-4,0
AEROCUBE 8D,2016-067E,2026-06-06T04:37:53.167872,15.24242707,.00039877,98.0694,26.5282,151.9816,208.1635,0,U,41852,999,52439,.42734163E-3,.10352E-3,0
AEROCUBE 8C,2016-067F,2026-06-06T13:09:01.588320,15.24493172,.00067778,98.0566,24.1515,97.3370,262.8636,0,U,41853,999,52444,.39065487E-3,.9531E-4,0
CORVUS BC2,2017-042X,2026-06-06T04:00:47.452032,15.06228237,.00141087,97.4067,318.9474,143.8240,216.3945,0,U,42846,999,48540,.29031568E-3,.4207E-4,0
CORVUS BC1,2017-042Y,2026-06-06T05:30:28.381824,15.06396296,.00133651,97.4093,319.8140,122.2429,238.0096,0,U,42847,999,48544,.25816413E-3,.3751E-4,0
MAKERSAT 0,2017-073D,2026-06-06T09:39:09.053568,15.31705731,.01063318,97.4648,39.8396,312.0020,47.2202,0,U,43016,999,46481,.81303298E-3,.29727E-3,0
